SENTINEL-6              
1 46984U 20086A   24118.87267227 -.00000040  00000+0  89226-4 0  9999
2 46984  66.0416 315.7746 0007758 270.9362  89.0764 12.80930510160386
